{
  "links" : {
    "next" : "https://api.nasa.gov/neo/rest/v1/feed?start_date=2008-11-16&end_date=2008-11-16&detailed=true&api_key=t0TVs3DtDT2H8Oy2Zy8m2eVrNsAVKAexjcZXUckd",
    "prev" : "https://api.nasa.gov/neo/rest/v1/feed?start_date=2008-11-14&end_date=2008-11-14&detailed=true&api_key=t0TVs3DtDT2H8Oy2Zy8m2eVrNsAVKAexjcZXUckd",
    "self" : "https://api.nasa.gov/neo/rest/v1/feed?start_date=2008-11-15&end_date=2008-11-15&detailed=true&api_key=t0TVs3DtDT2H8Oy2Zy8m2eVrNsAVKAexjcZXUckd"
  },
  "element_count" : 9,
  "near_earth_objects" : {
    "2008-11-15" : [ {
      "links" : {
        "self" : "https://api.nasa.gov/neo/rest/v1/neo/3433062?api_key=t0TVs3DtDT2H8Oy2Zy8m2eVrNsAVKAexjcZXUckd"
      },
      "neo_reference_id" : "3433062",
      "name" : "(2008 UL3)",
      "nasa_jpl_url" : "http://ssd.jpl.nasa.gov/sbdb.cgi?sstr=3433062",
      "absolute_magnitude_h" : 25.4,
      "estimated_diameter" : {
        "kilometers" : {
          "estimated_diameter_min" : 0.022108281,
          "estimated_diameter_max" : 0.0494356193
        },
        "meters" : {
          "estimated_diameter_min" : 22.1082810359,
          "estimated_diameter_max" : 49.435619262
        },
        "miles" : {
          "estimated_diameter_min" : 0.0137374447,
          "estimated_diameter_max" : 0.0307178602
        },
        "feet" : {
          "estimated_diameter_min" : 72.5337327539,
          "estimated_diameter_max" : 162.1903570994
        }
      },
      "is_potentially_hazardous_asteroid" : false,
      "close_approach_data" : [ {
        "close_approach_date" : "2008-11-15",
        "epoch_date_close_approach" : 1226736000000,
        "relative_velocity" : {
          "kilometers_per_second" : "4.0793210042",
          "kilometers_per_hour" : "14685.5556149846",
          "miles_per_hour" : "9125.0331542109"
        },
        "miss_distance" : {
          "astronomical" : "0.0800451246",
          "lunar" : "31.1375541687",
          "kilometers" : "11974581",
          "miles" : "7440659.5"
        },
        "orbiting_body" : "Earth"
      } ],
      "orbital_data" : {
        "orbit_id" : "9",
        "orbit_determination_date" : "2017-04-06 09:02:28",
        "orbit_uncertainty" : "8",
        "minimum_orbit_intersection" : ".0705162",
        "jupiter_tisserand_invariant" : "4.985",
        "epoch_osculation" : "2454765.5",
        "eccentricity" : ".2240985703082729",
        "semi_major_axis" : "1.294631092051966",
        "inclination" : "6.582773367689072",
        "ascending_node_longitude" : "205.7815353413064",
        "orbital_period" : "538.0436078655758",
        "perihelion_distance" : "1.004506115246482",
        "perihelion_argument" : "240.6998315082122",
        "aphelion_distance" : "1.584756068857449",
        "perihelion_time" : "2454819.117500491351",
        "mean_anomaly" : "324.1250264946762",
        "mean_motion" : ".6690907479193433",
        "equinox" : "J2000"
      }
    }, {
      "links" : {
        "self" : "https://api.nasa.gov/neo/rest/v1/neo/3439808?api_key=t0TVs3DtDT2H8Oy2Zy8m2eVrNsAVKAexjcZXUckd"
      },
      "neo_reference_id" : "3439808",
      "name" : "(2008 WE14)",
      "nasa_jpl_url" : "http://ssd.jpl.nasa.gov/sbdb.cgi?sstr=3439808",
      "absolute_magnitude_h" : 25.4,
      "estimated_diameter" : {
        "kilometers" : {
          "estimated_diameter_min" : 0.022108281,
          "estimated_diameter_max" : 0.0494356193
        },
        "meters" : {
          "estimated_diameter_min" : 22.1082810359,
          "estimated_diameter_max" : 49.435619262
        },
        "miles" : {
          "estimated_diameter_min" : 0.0137374447,
          "estimated_diameter_max" : 0.0307178602
        },
        "feet" : {
          "estimated_diameter_min" : 72.5337327539,
          "estimated_diameter_max" : 162.1903570994
        }
      },
      "is_potentially_hazardous_asteroid" : false,
      "close_approach_data" : [ {
        "close_approach_date" : "2008-11-15",
        "epoch_date_close_approach" : 1226736000000,
        "relative_velocity" : {
          "kilometers_per_second" : "10.199337608",
          "kilometers_per_hour" : "36717.6153886996",
          "miles_per_hour" : "22814.8982952728"
        },
        "miss_distance" : {
          "astronomical" : "0.0557908311",
          "lunar" : "21.7026329041",
          "kilometers" : "8346189.5",
          "miles" : "5186081.5"
        },
        "orbiting_body" : "Earth"
      } ],
      "orbital_data" : {
        "orbit_id" : "6",
        "orbit_determination_date" : "2017-04-06 09:02:08",
        "orbit_uncertainty" : "9",
        "minimum_orbit_intersection" : ".0546869",
        "jupiter_tisserand_invariant" : "4.190",
        "epoch_osculation" : "2454791.5",
        "eccentricity" : ".3878994611266059",
        "semi_major_axis" : "1.632102919679979",
        "inclination" : "13.98498188705362",
        "ascending_node_longitude" : "59.07687118699286",
        "orbital_period" : "761.5873809163825",
        "perihelion_distance" : ".9990110766329553",
        "perihelion_argument" : "324.0859524823657",
        "aphelion_distance" : "2.265194762727003",
        "perihelion_time" : "2454760.047080946512",
        "mean_anomaly" : "14.8676975787482",
        "mean_motion" : ".4726969078280011",
        "equinox" : "J2000"
      }
    }, {
      "links" : {
        "self" : "https://api.nasa.gov/neo/rest/v1/neo/3441128?api_key=t0TVs3DtDT2H8Oy2Zy8m2eVrNsAVKAexjcZXUckd"
      },
      "neo_reference_id" : "3441128",
      "name" : "(2008 XC2)",
      "nasa_jpl_url" : "http://ssd.jpl.nasa.gov/sbdb.cgi?sstr=3441128",
      "absolute_magnitude_h" : 23.4,
      "estimated_diameter" : {
        "kilometers" : {
          "estimated_diameter_min" : 0.0555334912,
          "estimated_diameter_max" : 0.1241766613
        },
        "meters" : {
          "estimated_diameter_min" : 55.5334911581,
          "estimated_diameter_max" : 124.1766612574
        },
        "miles" : {
          "estimated_diameter_min" : 0.0345069009,
          "estimated_diameter_max" : 0.0771597762
        },
        "feet" : {
          "estimated_diameter_min" : 182.1964991311,
          "estimated_diameter_max" : 407.4037573197
        }
      },
      "is_potentially_hazardous_asteroid" : false,
      "close_approach_data" : [ {
        "close_approach_date" : "2008-11-15",
        "epoch_date_close_approach" : 1226736000000,
        "relative_velocity" : {
          "kilometers_per_second" : "7.5666473906",
          "kilometers_per_hour" : "27239.9306060082",
          "miles_per_hour" : "16925.8335479388"
        },
        "miss_distance" : {
          "astronomical" : "0.0592418635",
          "lunar" : "23.045085907",
          "kilometers" : "8862457",
          "miles" : "5506875.5"
        },
        "orbiting_body" : "Earth"
      } ],
      "orbital_data" : {
        "orbit_id" : "8",
        "orbit_determination_date" : "2017-04-06 09:01:56",
        "orbit_uncertainty" : "9",
        "minimum_orbit_intersection" : ".0544977",
        "jupiter_tisserand_invariant" : "3.725",
        "epoch_osculation" : "2454806.5",
        "eccentricity" : ".4869001995697816",
        "semi_major_axis" : "1.959171480164842",
        "inclination" : "4.037291389598224",
        "ascending_node_longitude" : "269.9380585741846",
        "orbital_period" : "1001.629488742778",
        "perihelion_distance" : "1.005250495481156",
        "perihelion_argument" : "122.3450052235937",
        "aphelion_distance" : "2.913092464848528",
        "perihelion_time" : "2454768.967886937158",
        "mean_anomaly" : "13.48957958454529",
        "mean_motion" : ".3594143383816141",
        "equinox" : "J2000"
      }
    } ]
  }
}